NORAD_CAT_ID,OBJECT_NAME,OBJECT_TYPE,EPOCH,MEAN_MOTION,ECCENTRICITY,INCLINATION,RA_OF_ASC_NODE,ARG_OF_PERICENTER,MEAN_ANOMALY,BSTAR,MEAN_MOTION_DOT,MEAN_MOTION_DDOT,TLE_LINE0,TLE_LINE1,TLE_LINE2,SEMIMAJOR_AXIS,PERIOD,APOGEE,PERIGEE,DECAYED
51123.0,STARLINK-3392,PAYLOAD,2022-08-05 23:10:00,15.08848898,0.000181,53.2179,57.6897,66.6914,293.4268,4.3644e-05,4.07e-06,0.0,0 STARLINK-3392,1 51123U 22005V   22217.96528548  .00000407  00000-0  43644-4 0  9998,2 51123  53.2179  57.6897 0001810  66.6914 293.4268 15.08848898 31934,6917.853,95.437,540.97,538.466,0.0
51123.0,STARLINK-3392,PAYLOAD,2022-08-06 13:28:29,15.0883385,0.0001906,53.221,55.0127,71.0082,289.1116,3.9494e-05,3.4e-06,0.0,0 STARLINK-3392,1 51123U 22005V   22218.56145539  .00000340  00000-0  39494-4 0  9994,2 51123  53.2210  55.0127 0001906  71.0082 289.1116 15.08833850 30946,6917.899,95.438,541.0830000000002,538.446,0.0
51123.0,STARLINK-3392,PAYLOAD,2022-08-06 19:50:02,15.08836336,0.0001791,53.2177,53.8237,67.7585,292.3597,4.0583e-05,3.58e-06,0.0,0 STARLINK-3392,1 51123U 22005V   22218.82641553  .00000358  00000-0  40583-4 0  9990,2 51123  53.2177  53.8237 0001791  67.7585 292.3597 15.08836336 32064,6917.892,95.438,540.996,538.518,0.0
51123.0,STARLINK-3392,PAYLOAD,2022-08-06 23:00:48,15.08837661,0.000168,53.2191,53.2299,63.8259,296.2905,4.1608e-05,3.74e-06,0.0,0 STARLINK-3392,1 51123U 22005V   22218.95889534  .00000374  00000-0  41608-4 0  9994,2 51123  53.2191  53.2299 0001680  63.8259 296.2905 15.08837661 31005,6917.888000000001,95.438,540.915,538.59,0.0
51123.0,STARLINK-3392,PAYLOAD,2022-08-07 19:40:50,15.08821645,0.0001742,53.2178,49.3642,68.0017,292.116,-0.00018982,-3.306e-05,0.0,0 STARLINK-3392,1 51123U 22005V   22219.82002737 -.00003306  00000-0 -18982-3 0  9991,2 51123  53.2178  49.3642 0001742  68.0017 292.1160 15.08821645 32213,6917.936,95.439,541.007,538.596,0.0
51123.0,STARLINK-3392,PAYLOAD,2022-08-07 22:51:35,15.08835492,0.0001654,53.2178,48.7685,63.1184,296.9977,-7.049899999999999e-05,-1.41e-05,0.0,0 STARLINK-3392,1 51123U 22005V   22219.95249662 -.00001410  00000-0 -70499-4 0  9991,2 51123  53.2178  48.7685 0001654  63.1184 296.9977 15.08835492 32231,6917.894,95.438,540.903,538.615,0.0
51123.0,STARLINK-3392,PAYLOAD,2022-08-08 05:13:08,15.08834945,0.0001781,53.218,47.5802,67.9414,292.1767,1.8506e-05,6e-08,0.0,0 STARLINK-3392,1 51123U 22005V   22220.21745459  .00000006  00000-0  18506-4 0  9996,2 51123  53.2180  47.5802 0001781  67.9414 292.1767 15.08834945 31192,6917.896,95.438,540.993,538.529,0.0
51123.0,STARLINK-3392,PAYLOAD,2022-08-08 19:31:35,15.08845128,0.0001649,53.2187,44.9034,65.9513,294.1651,0.00010798,1.431e-05,0.0,0 STARLINK-3392,1 51123U 22005V   22220.81360903  .00001431  00000-0  10798-3 0  9996,2 51123  53.2187  44.9034 0001649  65.9513 294.1651 15.08845128 31287,6917.865,95.437,540.87,538.589,0.0
51123.0,STARLINK-3392,PAYLOAD,2022-08-09 11:25:27,15.08712996,0.0001299,53.2191,41.9301,94.8088,265.3052,0.0018376999999999,0.00028978,0.0,0 STARLINK-3392,1 51123U 22005V   22221.47601747  .00028978  00000-0  18377-2 0  9998,2 51123  53.2191  41.9301 0001299  94.8088 265.3052 15.08712996 31387,6918.269,95.446,541.0319999999998,539.235,0.0
51123.0,STARLINK-3392,PAYLOAD,2022-08-09 16:11:39,15.08630461,0.0001588,53.2197,41.0383,86.2745,273.8428,0.0028991999999999,0.00045889,0.0,0 STARLINK-3392,1 51123U 22005V   22221.67476429  .00045889  00000-0  28992-2 0  9991,2 51123  53.2197  41.0383 0001588  86.2745 273.8428 15.08630461 32490,6918.521,95.451,541.485,539.2869999999998,0.0
51123.0,STARLINK-3392,PAYLOAD,2022-08-09 20:57:49,15.08716127,0.0001006,53.2187,40.145,103.8842,256.2262,0.0016136,0.00025399,0.0,0 STARLINK-3392,1 51123U 22005V   22221.87348942  .00025399  00000-0  16136-2 0  9992,2 51123  53.2187  40.1450 0001006 103.8842 256.2262 15.08716127 31442,6918.259,95.445,540.82,539.428,0.0
51123.0,STARLINK-3392,PAYLOAD,2022-08-10 03:19:18,15.08856893,0.000143,53.2191,38.9556,71.1408,288.9739,-0.00035937,-6.005e-05,0.0,0 STARLINK-3392,1 51123U 22005V   22222.13840985 -.00006005  00000-0 -35937-3 0  9992,2 51123  53.2191  38.9556 0001430  71.1408 288.9739 15.08856893 32565,6917.829000000002,95.436,540.683,538.705,0.0
51123.0,STARLINK-3392,PAYLOAD,2022-08-10 11:16:15,15.08835233,0.000154,53.2188,37.4693,64.8076,295.3075,5.2828e-05,5.53e-06,0.0,0 STARLINK-3392,1 51123U 22005V   22222.46961873  .00000553  00000-0  52828-4 0  9997,2 51123  53.2188  37.4693 0001540  64.8076 295.3075 15.08835233 32615,6917.895,95.438,540.825,538.695,0.0
51123.0,STARLINK-3392,PAYLOAD,2022-08-10 14:27:00,15.08836771,0.0001520999999999,53.2179,36.8745,63.8332,296.2816,-2.413e-05,-6.72e-06,0.0,0 STARLINK-3392,1 51123U 22005V   22222.60209426 -.00000672  00000-0 -24130-4 0  9991,2 51123  53.2179  36.8745 0001521  63.8332 296.2816 15.08836771 31552,6917.89,95.438,540.807,538.703,0.0
51123.0,STARLINK-3392,PAYLOAD,2022-08-11 04:45:28,15.08843639,0.0001535,53.2181,34.1986,63.966,296.149,6.863e-05,8.05e-06,0.0,0 STARLINK-3392,1 51123U 22005V   22223.19825155  .00000805  00000-0  68630-4 0  9998,2 51123  53.2181  34.1986 0001535  63.9660 296.1490 15.08843639 31641,6917.869000000002,95.437,540.7959999999998,538.672,0.0
51123.0,STARLINK-3392,PAYLOAD,2022-08-11 19:03:57,15.08838358,0.0001515,53.2181,31.5218,60.6201,299.4943,-9.8455e-05,-1.854e-05,0.0,0 STARLINK-3392,1 51123U 22005V   22223.79441590 -.00001854  00000-0 -98455-4 0  9996,2 51123  53.2181  31.5218 0001515  60.6201 299.4943 15.08838358 32814,6917.885,95.438,540.798,538.702,0.0
51123.0,STARLINK-3392,PAYLOAD,2022-08-12 04:36:16,15.08837433,0.0001527,53.2182,29.7376,62.7141,297.4007,0.00016371,2.318e-05,0.0,0 STARLINK-3392,1 51123U 22005V   22224.19185911  .00002318  00000-0  16371-3 0  9993,2 51123  53.2182  29.7376 0001527  62.7141 297.4007 15.08837433 31796,6917.888000000001,95.438,540.81,538.697,0.0
51123.0,STARLINK-3392,PAYLOAD,2022-08-12 18:54:44,15.0884741,0.0001564999999999,53.2183,27.0614,64.1393,295.9761,0.00022325,3.268e-05,0.0,0 STARLINK-3392,1 51123U 22005V   22224.78801473  .00003268  00000-0  22325-3 0  9997,2 51123  53.2183  27.0614 0001565  64.1393 295.9761 15.08847410 31886,6917.858,95.437,540.805,538.64,0.0
51123.0,STARLINK-3392,PAYLOAD,2022-08-12 22:05:30,15.08850022,0.0001564999999999,53.2183,26.4666,64.2875,295.8278,0.00025336,3.748e-05,0.0,0 STARLINK-3392,1 51123U 22005V   22224.92049323  .00003748  00000-0  25336-3 0  9999,2 51123  53.2183  26.4666 0001565  64.2875 295.8278 15.08850022 32989,6917.85,95.437,540.797,538.632,0.0
51123.0,STARLINK-3392,PAYLOAD,2022-08-13 13:59:22,15.08843484,0.0001631,53.2183,23.4929,64.0431,296.0729,0.00015653,2.204e-05,0.0,0 STARLINK-3392,1 51123U 22005V   22225.58289727  .00002204  00000-0  15653-3 0  9993,2 51123  53.2183  23.4929 0001631  64.0431 296.0729 15.08843484 32009,6917.87,95.437,540.863,538.606,0.0
51123.0,STARLINK-3392,PAYLOAD,2022-08-13 20:20:55,15.0883057,0.0001314,53.218,22.3035,62.3394,297.7732,-4.6801e-05,-1.032e-05,0.0,0 STARLINK-3392,1 51123U 22005V   22225.84786285 -.00001032  00000-0 -46801-4 0  9993,2 51123  53.2180  22.3035 0001314  62.3394 297.7732 15.08830570 32047,6917.909000000002,95.438,540.683,538.865,0.0
51123.0,STARLINK-3392,PAYLOAD,2022-08-13 21:56:18,15.08830688,0.0001298,53.2178,22.0064,61.8365,298.2759,-5.3487e-05,-1.139e-05,0.0,0 STARLINK-3392,1 51123U 22005V   22225.91410313 -.00001139  00000-0 -53487-4 0  9993,2 51123  53.2178  22.0064 0001298  61.8365 298.2759 15.08830688 33132,6917.909000000002,95.438,540.672,538.876,0.0
51123.0,STARLINK-3392,PAYLOAD,2022-08-14 12:14:46,15.08836977,0.0001419,53.2184,19.3298,60.8234,299.29,4.0773e-05,3.61e-06,0.0,0 STARLINK-3392,1 51123U 22005V   22226.51026397  .00000361  00000-0  40773-4 0  9993,2 51123  53.2184  19.3298 0001419  60.8234 299.2900 15.08836977 32142,6917.89,95.438,540.736,538.773,0.0
51123.0,STARLINK-3392,PAYLOAD,2022-08-14 18:36:19,15.08840486,0.0001446,53.2186,18.1404,58.7662,301.3472,0.00024991,3.692e-05,0.0,0 STARLINK-3392,1 51123U 22005V   22226.77522446  .00003692  00000-0  24991-3 0  9990,2 51123  53.2186  18.1404 0001446  58.7662 301.3472 15.08840486 33264,6917.879,95.438,540.744,538.744,0.0
51123.0,STARLINK-3392,PAYLOAD,2022-08-14 20:11:42,15.08841475,0.0001443999999999,53.2186,17.843,55.4427,304.6702,0.00029998,4.49e-05,0.0,0 STARLINK-3392,1 51123U 22005V   22226.84146384  .00004490  00000-0  29998-3 0  9990,2 51123  53.2186  17.8430 0001444  55.4427 304.6702 15.08841475 32192,6917.876,95.437,540.74,538.742,0.0
51123.0,STARLINK-3392,PAYLOAD,2022-08-15 12:05:33,15.08842604,0.0001423,53.2188,14.8695,56.5562,303.5566,0.00030298,4.538e-05,0.0,0 STARLINK-3392,1 51123U 22005V   22227.50386559  .00004538  00000-0  30298-3 0  9992,2 51123  53.2188  14.8695 0001423  56.5562 303.5566 15.08842604 32295,6917.871999999999,95.437,540.722,538.753,0.0
51123.0,STARLINK-3392,PAYLOAD,2022-08-15 16:51:43,15.08837487,0.000143,53.2187,13.9774,57.3302,302.7827,0.0001453,2.025e-05,0.0,0 STARLINK-3392,1 51123U 22005V   22227.70258740  .00002025  00000-0  14530-3 0  9994,2 51123  53.2187  13.9774 0001430  57.3302 302.7827 15.08837487 33409,6917.888000000001,95.438,540.742,538.764,0.0
51123.0,STARLINK-3392,PAYLOAD,2022-08-16 10:20:57,15.08843725,0.0001443,53.2187,10.7065,56.4438,303.6692,0.00019593,2.832e-05,0.0,0 STARLINK-3392,1 51123U 22005V   22228.43122589  .00002832  00000-0  19593-3 0  9996,2 51123  53.2187  10.7065 0001443  56.4438 303.6692 15.08843725 32435,6917.869000000002,95.437,540.732,538.736,0.0
51123.0,STARLINK-3392,PAYLOAD,2022-08-16 19:53:16,15.08846553,0.0001453999999999,53.219,8.9232,54.6625,305.4503,0.00019458,2.811e-05,0.0,0 STARLINK-3392,1 51123U 22005V   22228.82866381  .00002811  00000-0  19458-3 0  9991,2 51123  53.2190   8.9232 0001454  54.6625 305.4503 15.08846553 32493,6917.86,95.437,540.731,538.72,0.0
